{
  "type": "FeatureCollection",
  "features": [
    {
      "type": "Feature",
      "properties": {
        "norad_id": 28890,
        "name": "BEIJING 1",
        "group": "dmc",
        "lat": -80.60224539350128,
        "lon": 174.39605745333242,
        "alt_km": 696.5138933160597,
        "timestamp": "2025-12-11T10:53:15.551928+00:00",
        "meta_object_name": "BEIJING 1",
        "meta_object_id": "2005-043A",
        "meta_epoch": "2025-12-11T04:42:53.769024",
        "meta_mean_motion": 14.63363331,
        "meta_eccentricity": 0.0015221,
        "meta_inclination": 98.2656,
        "meta_ra_of_asc_node": 112.6995,
        "meta_arg_of_pericenter": 145.7136,
        "meta_mean_anomaly": 214.5051,
        "meta_ephemeris_type": 0,
        "meta_classification_type": "U",
        "meta_norad_cat_id": 28890,
        "meta_element_set_no": 999,
        "meta_rev_at_epoch": 7315,
        "meta_bstar": 0.00011979,
        "meta_mean_motion_dot": 5.71e-06,
        "meta_mean_motion_ddot": 0,
        "tle_line1": "1 28890U 05043A   25345.19645566  .00000571  00000+0  11979-3 0  9992",
        "tle_line2": "2 28890  98.2656 112.6995 0015221 145.7136 214.5051 14.63363331 73153"
      },
      "geometry": {
        "type": "Point",
        "coordinates": [
          174.39605745333242,
          -80.60224539350128
        ]
      }
    },
    {
      "type": "Feature",
      "properties": {
        "norad_id": 33320,
        "name": "HUANJING 1A (HJ-1A)",
        "group": "dmc",
        "lat": -29.076519784450696,
        "lon": 149.51721125938357,
        "alt_km": 638.6154866223251,
        "timestamp": "2025-12-11T10:53:15.551972+00:00",
        "meta_object_name": "HUANJING 1A (HJ-1A)",
        "meta_object_id": "2008-041A",
        "meta_epoch": "2025-12-11T05:05:28.648032",
        "meta_mean_motion": 14.83388594,
        "meta_eccentricity": 0.0020333,
        "meta_inclination": 97.6547,
        "meta_ra_of_asc_node": 333.5746,
        "meta_arg_of_pericenter": 39.2916,
        "meta_mean_anomaly": 320.977,
        "meta_ephemeris_type": 0,
        "meta_classification_type": "U",
        "meta_norad_cat_id": 33320,
        "meta_element_set_no": 999,
        "meta_rev_at_epoch": 93053,
        "meta_bstar": 0.00037616,
        "meta_mean_motion_dot": 3.046e-05,
        "meta_mean_motion_ddot": 0,
        "tle_line1": "1 33320U 08041A   25345.21213713  .00003046  00000+0  37616-3 0  9991",
        "tle_line2": "2 33320  97.6547 333.5746 0020333  39.2916 320.9770 14.83388594930534"
      },
      "geometry": {
        "type": "Point",
        "coordinates": [
          149.51721125938357,
          -29.076519784450696
        ]
      }
    },
    {
      "type": "Feature",
      "properties": {
        "norad_id": 33321,
        "name": "HUANJING 1B (HJ-1B)",
        "group": "dmc",
        "lat": 71.2979550690678,
        "lon": -45.85550505024546,
        "alt_km": 586.9641315440285,
        "timestamp": "2025-12-11T10:53:15.551989+00:00",
        "meta_object_name": "HUANJING 1B (HJ-1B)",
        "meta_object_id": "2008-041B",
        "meta_epoch": "2025-12-11T05:42:11.818656",
        "meta_mean_motion": 14.82814578,
        "meta_eccentricity": 0.0038282,
        "meta_inclination": 97.6403,
        "meta_ra_of_asc_node": 337.2997,
        "meta_arg_of_pericenter": 80.3351,
        "meta_mean_anomaly": 280.2185,
        "meta_ephemeris_type": 0,
        "meta_classification_type": "U",
        "meta_norad_cat_id": 33321,
        "meta_element_set_no": 999,
        "meta_rev_at_epoch": 93055,
        "meta_bstar": 0.00022962,
        "meta_mean_motion_dot": 1.83e-05,
        "meta_mean_motion_ddot": 0,
        "tle_line1": "1 33321U 08041B   25345.23763679  .00001830  00000+0  22962-3 0  9992",
        "tle_line2": "2 33321  97.6403 337.2997 0038282  80.3351 280.2185 14.82814578930552"
      },
      "geometry": {
        "type": "Point",
        "coordinates": [
          -45.85550505024546,
          71.2979550690678
        ]
      }
    },
    {
      "type": "Feature",
      "properties": {
        "norad_id": 33446,
        "name": "YAOGAN-4",
        "group": "dmc",
        "lat": -14.727053810088071,
        "lon": -82.33809484584937,
        "alt_km": 616.4295143759891,
        "timestamp": "2025-12-11T10:53:15.552002+00:00",
        "meta_object_name": "YAOGAN-4",
        "meta_object_id": "2008-061A",
        "meta_epoch": "2025-12-10T18:45:27.285984",
        "meta_mean_motion": 14.82672885,
        "meta_eccentricity": 0.00137394,
        "meta_inclination": 97.9179,
        "meta_ra_of_asc_node": 274.9001,
        "meta_arg_of_pericenter": 330.1294,
        "meta_mean_anomaly": 29.9134,
        "meta_ephemeris_type": 0,
        "meta_classification_type": "U",
        "meta_norad_cat_id": 33446,
        "meta_element_set_no": 999,
        "meta_rev_at_epoch": 91774,
        "meta_bstar": 0.00030466827,
        "meta_mean_motion_dot": 2.407e-05,
        "meta_mean_motion_ddot": 0,
        "tle_line1": "1 33446U 08061A   25344.78156581  .00002407  00000+0  30467-3 0  9999",
        "tle_line2": "2 33446  97.9179 274.9001 0013739 330.1294  29.9134 14.82672885917749"
      },
      "geometry": {
        "type": "Point",
        "coordinates": [
          -82.33809484584937,
          -14.727053810088071
        ]
      }
    },
    {
      "type": "Feature",
      "properties": {
        "norad_id": 35681,
        "name": "DEIMOS-1",
        "group": "dmc",
        "lat": 28.807271275117813,
        "lon": -29.6080291270772,
        "alt_km": 643.3308058694574,
        "timestamp": "2025-12-11T10:53:15.552015+00:00",
        "meta_object_name": "DEIMOS-1",
        "meta_object_id": "2009-041A",
        "meta_epoch": "2025-12-11T05:19:18.972768",
        "meta_mean_motion": 14.7494851,
        "meta_eccentricity": 0.0002755,
        "meta_inclination": 97.7151,
        "meta_ra_of_asc_node": 145.8956,
        "meta_arg_of_pericenter": 81.8144,
        "meta_mean_anomaly": 278.3378,
        "meta_ephemeris_type": 0,
        "meta_classification_type": "U",
        "meta_norad_cat_id": 35681,
        "meta_element_set_no": 999,
        "meta_rev_at_epoch": 87917,
        "meta_bstar": 0.00017264,
        "meta_mean_motion_dot": 1.113e-05,
        "meta_mean_motion_ddot": 0,
        "tle_line1": "1 35681U 09041A   25345.22174737  .00001113  00000+0  17264-3 0  9997",
        "tle_line2": "2 35681  97.7151 145.8956 0002755  81.8144 278.3378 14.74948510879171"
      },
      "geometry": {
        "type": "Point",
        "coordinates": [
          -29.6080291270772,
          28.807271275117813
        ]
      }
    },
    {
      "type": "Feature",
      "properties": {
        "norad_id": 35683,
        "name": "UK-DMC 2",
        "group": "dmc",
        "lat": 16.970498699815426,
        "lon": -57.19276347036655,
        "alt_km": 643.3503913158929,
        "timestamp": "2025-12-11T10:53:15.552032+00:00",
        "meta_object_name": "UK-DMC 2",
        "meta_object_id": "2009-041C",
        "meta_epoch": "2025-12-11T05:16:13.164384",
        "meta_mean_motion": 14.75616907,
        "meta_eccentricity": 0.0001426,
        "meta_inclination": 97.8563,
        "meta_ra_of_asc_node": 120.1649,
        "meta_arg_of_pericenter": 97.4776,
        "meta_mean_anomaly": 262.6596,
        "meta_ephemeris_type": 0,
        "meta_classification_type": "U",
        "meta_norad_cat_id": 35683,
        "meta_element_set_no": 999,
        "meta_rev_at_epoch": 87884,
        "meta_bstar": 0.00027299,
        "meta_mean_motion_dot": 1.814e-05,
        "meta_mean_motion_ddot": 0,
        "tle_line1": "1 35683U 09041C   25345.21959681  .00001814  00000+0  27299-3 0  9994",
        "tle_line2": "2 35683  97.8563 120.1649 0001426  97.4776 262.6596 14.75616907878848"
      },
      "geometry": {
        "type": "Point",
        "coordinates": [
          -57.19276347036655,
          16.970498699815426
        ]
      }
    },
    {
      "type": "Feature",
      "properties": {
        "norad_id": 40715,
        "name": "DMC3-FM1",
        "group": "dmc",
        "lat": 13.439897393804452,
        "lon": 34.53806143224657,
        "alt_km": 616.5197264390845,
        "timestamp": "2025-12-11T10:53:15.552043+00:00",
        "meta_object_name": "DMC3-FM1",
        "meta_object_id": "2015-032A",
        "meta_epoch": "2025-12-11T05:17:27.712032",
        "meta_mean_motion": 14.85436286,
        "meta_eccentricity": 0.0004803,
        "meta_inclination": 97.669,
        "meta_ra_of_asc_node": 212.4682,
        "meta_arg_of_pericenter": 328.2196,
        "meta_mean_anomaly": 31.8729,
        "meta_ephemeris_type": 0,
        "meta_classification_type": "U",
        "meta_norad_cat_id": 40715,
        "meta_element_set_no": 999,
        "meta_rev_at_epoch": 56200,
        "meta_bstar": 0.00012956,
        "meta_mean_motion_dot": 1.065e-05,
        "meta_mean_motion_ddot": 0,
        "tle_line1": "1 40715U 15032A   25345.22045963  .00001065  00000+0  12956-3 0  9995",
        "tle_line2": "2 40715  97.6690 212.4682 0004803 328.2196  31.8729 14.85436286562007"
      },
      "geometry": {
        "type": "Point",
        "coordinates": [
          34.53806143224657,
          13.439897393804452
        ]
      }
    },
    {
      "type": "Feature",
      "properties": {
        "norad_id": 40716,
        "name": "DMC3-FM2",
        "group": "dmc",
        "lat": 45.54729318688327,
        "lon": -153.76426698707954,
        "alt_km": 607.3148121276436,
        "timestamp": "2025-12-11T10:53:15.552055+00:00",
        "meta_object_name": "DMC3-FM2",
        "meta_object_id": "2015-032B",
        "meta_epoch": "2025-12-11T04:12:51.587712",
        "meta_mean_motion": 14.85435252,
        "meta_eccentricity": 0.0005494,
        "meta_inclination": 97.6745,
        "meta_ra_of_asc_node": 213.8677,
        "meta_arg_of_pericenter": 332.0767,
        "meta_mean_anomaly": 28.0153,
        "meta_ephemeris_type": 0,
        "meta_classification_type": "U",
        "meta_norad_cat_id": 40716,
        "meta_element_set_no": 999,
        "meta_rev_at_epoch": 56199,
        "meta_bstar": 9.7473e-05,
        "meta_mean_motion_dot": 7.89e-06,
        "meta_mean_motion_ddot": 0,
        "tle_line1": "1 40716U 15032B   25345.17559708  .00000789  00000+0  97473-4 0  9997",
        "tle_line2": "2 40716  97.6745 213.8677 0005494 332.0767  28.0153 14.85435252561990"
      },
      "geometry": {
        "type": "Point",
        "coordinates": [
          -153.76426698707954,
          45.54729318688327
        ]
      }
    },
    {
      "type": "Feature",
      "properties": {
        "norad_id": 40717,
        "name": "DMC3-FM3",
        "group": "dmc",
        "lat": -68.15963737836267,
        "lon": -124.55687906164815,
        "alt_km": 617.0641029274439,
        "timestamp": "2025-12-11T10:53:15.552066+00:00",
        "meta_object_name": "DMC3-FM3",
        "meta_object_id": "2015-032C",
        "meta_epoch": "2025-12-11T04:43:58.914624",
        "meta_mean_motion": 14.85426584,
        "meta_eccentricity": 0.0004784,
        "meta_inclination": 97.68,
        "meta_ra_of_asc_node": 215.5205,
        "meta_arg_of_pericenter": 334.2188,
        "meta_mean_anomaly": 25.8789,
        "meta_ephemeris_type": 0,
        "meta_classification_type": "U",
        "meta_norad_cat_id": 40717,
        "meta_element_set_no": 999,
        "meta_rev_at_epoch": 56200,
        "meta_bstar": 0.00014762,
        "meta_mean_motion_dot": 1.22e-05,
        "meta_mean_motion_ddot": 0,
        "tle_line1": "1 40717U 15032C   25345.19720966  .00001220  00000+0  14762-3 0  9996",
        "tle_line2": "2 40717  97.6800 215.5205 0004784 334.2188  25.8789 14.85426584562002"
      },
      "geometry": {
        "type": "Point",
        "coordinates": [
          -124.55687906164815,
          -68.15963737836267
        ]
      }
    }
  ]
}